[{"OBJECT_NAME":"TEVEL2-7","OBJECT_ID":"2025-052AE","EPOCH":"2026-03-09T15:52:01.887744","MEAN_MOTION":15.28414096,"ECCENTRICITY":0.00081048,"INCLINATION":97.4054,"RA_OF_ASC_NODE":324.3041,"ARG_OF_PERICENTER":124.683,"MEAN_ANOMALY":235.5175,"EPHEMERIS_TYPE":0,"CLASSIFICATION_TYPE":"U","NORAD_CAT_ID":63238,"ELEMENT_SET_NO":999,"REV_AT_EPOCH":5480,"BSTAR":0.00069668191,"MEAN_MOTION_DOT":0.00019244,"MEAN_MOTION_DDOT":0},{"OBJECT_NAME":"STARLINK-34106","OBJECT_ID":"2025-095T","EPOCH":"2026-03-09T07:29:12.874848","MEAN_MOTION":15.27617963,"ECCENTRICITY":0.0006479,"INCLINATION":43.0031,"RA_OF_ASC_NODE":178.0374,"ARG_OF_PERICENTER":294.2372,"MEAN_ANOMALY":65.7803,"EPHEMERIS_TYPE":0,"CLASSIFICATION_TYPE":"U","NORAD_CAT_ID":63907,"ELEMENT_SET_NO":999,"REV_AT_EPOCH":4772,"BSTAR":0.0011119022,"MEAN_MOTION_DOT":0.00030512,"MEAN_MOTION_DDOT":0}]
